     2.100          NAVIGATION                              RINEX VERSION / TYPE
fic2rin                                 08/24/2010 00:56:14 PGM / RUN BY / DATE
                                                            END OF HEADER
20 10  8 23 20  0  0.0  .518583692610D-04 -.341060513165D-12  .000000000000D+00
     .690000000000D+02 -.394062500000D+02  .533629370662D-08 -.189237175617D+01
    -.207126140594D-05  .411455822177D-02  .508688390255D-05  .515354421616D+04
     .158400000000D+06  .154599547386D-06 -.124579136540D+01 -.745058059692D-08
     .935776055126D+00  .270125000000D+03  .130720799012D+01 -.845713798803D-08
    -.477162732886D-09  .100000000000D+01  .159800000000D+04  .000000000000D+00
     .240000000000D+01  .000000000000D+00 -.791624188423D-08  .690000000000D+02
     .151206000000D+06  .400000000000D+01
21 10  8 23 20  0  0.0 -.831121578813D-04 -.261479726760D-11  .000000000000D+00
     .260000000000D+02  .490625000000D+02  .540236788745D-08 -.104892786339D+01
     .255554914474D-05  .168073489331D-01  .621937215328D-05  .515363870811D+04
     .158400000000D+06  .437721610069D-06 -.224858341393D+01  .141561031342D-06
     .932264419755D+00  .242843750000D+03 -.245049989789D+01 -.852535511526D-08
     .331085219600D-09  .100000000000D+01  .159800000000D+04  .000000000000D+00
     .240000000000D+01  .000000000000D+00 -.121071934700D-07  .260000000000D+02
     .151206000000D+06  .400000000000D+01
22 10  8 23 20  0  0.0  .164627097547D-03 -.102318153949D-11  .000000000000D+00
     .750000000000D+02 -.433750000000D+02  .527843415368D-08 -.309758542257D+01
    -.222586095333D-05  .558263319544D-02  .560283660889D-05  .515371168900D+04
     .158400000000D+06  .298023223877D-07 -.118708677136D+01  .558793544769D-08
     .933545511746D+00  .256406250000D+03 -.193944914022D+01 -.835284792964D-08
    -.448590114150D-09  .100000000000D+01  .159800000000D+04  .000000000000D+00
     .485000000000D+01  .000000000000D+00 -.176951289177D-07  .750000000000D+02
     .151206000000D+06  .400000000000D+01
23 10  8 23 20  0  0.0  .357185956091D-03 -.170530256582D-11  .000000000000D+00
     .220000000000D+02  .301875000000D+02  .394194991232D-08  .144494565960D+01
     .173225998878D-05  .698982889298D-02  .118464231491D-04  .515365668106D+04
     .158400000000D+06 -.931322574615D-07 -.156600071456D+00  .145286321640D-06
     .967519364471D+00  .154687500000D+03  .307887716974D+01 -.763174646430D-08
    -.228938107620D-09  .100000000000D+01  .159800000000D+04  .000000000000D+00
     .240000000000D+01  .000000000000D+00 -.200234353542D-07  .220000000000D+02
     .151206000000D+06  .400000000000D+01
24 10  8 23 20  0  0.0  .315382611006D-03  .318323145621D-11  .000000000000D+00
     .950000000000D+02  .488750000000D+02  .505556772755D-08  .191836699121D+01
     .261515378952D-05  .570119696204D-02  .645034015179D-05  .515479493523D+04
     .158400000000D+06  .894069671631D-07 -.220850849500D+01  .614672899246D-07
     .948836734653D+00  .245531250000D+03 -.421656073382D+00 -.828998816843D-08
     .292512184307D-09  .100000000000D+01  .159800000000D+04  .000000000000D+00
     .340000000000D+01  .000000000000D+00 -.139698386192D-08  .950000000000D+02
     .151206000000D+06  .400000000000D+01
25 10  8 23 20  0  0.0 -.388477928936D-04 -.989075488178D-11  .000000000000D+00
     .240000000000D+02 -.775937500000D+02  .494270588354D-08 -.298276757151D+01
    -.402890145779D-05  .729637453333D-03  .324286520481D-05  .515378687668D+04
     .158400000000D+06 -.186264514923D-08  .191340056573D+01  .745058059692D-07
     .960309559971D+00  .316843750000D+03  .197944518007D+01 -.847785313661D-08
    -.200008331150D-09  .100000000000D+01  .159800000000D+04  .100000000000D+01
     .340000000000D+01  .630000000000D+02  .465661287308D-08  .240000000000D+02
     .151206000000D+06  .400000000000D+01
26 10  8 23 20  0  0.0 -.103627331555D-03 -.670752342558D-11  .000000000000D+00
     .640000000000D+02  .344375000000D+02  .351407494676D-08  .113888293893D+01
     .179372727871D-05  .197778231231D-01  .119525939226D-04  .515364713478D+04
     .158400000000D+06 -.324100255966D-06 -.975568016438D-01 -.372529029846D-08
     .990260191946D+00  .168531250000D+03  .110938184413D+01 -.774889420112D-08
    -.207151485834D-09  .100000000000D+01  .159800000000D+04  .000000000000D+00
     .240000000000D+01  .000000000000D+00 -.605359673500D-08  .640000000000D+02
     .151206000000D+06  .400000000000D+01
27 10  8 23 20  0  0.0  .182339921594D-03  .341060513165D-11  .000000000000D+00
     .107000000000D+03  .100875000000D+03  .410017078857D-08  .226773375475D+01
     .499561429024D-05  .215471378760D-01  .484101474285D-05  .515359339905D+04
     .158400000000D+06  .320374965668D-06  .829671734747D+00 -.260770320892D-07
     .979097860750D+00  .292281250000D+03 -.138129838032D+01 -.768460580896D-08
     .319299014371D-09  .100000000000D+01  .159800000000D+04  .000000000000D+00
     .240000000000D+01  .000000000000D+00 -.419095158577D-08  .107000000000D+03
     .151206000000D+06  .400000000000D+01
28 10  8 23 20  0  0.0 -.622635707259D-05  .136424205266D-11  .000000000000D+00
     .330000000000D+02 -.835312500000D+02  .454947521819D-08 -.296331090150D+01
    -.441260635853D-05  .161185527686D-01  .351294875145D-05  .515368052101D+04
     .158400000000D+06  .275671482086D-06  .196514347787D+01 -.201165676117D-06
     .971056676980D+00  .315937500000D+03 -.194893737965D+01 -.803176312660D-08
    -.195365280605D-09  .100000000000D+01  .159800000000D+04  .000000000000D+00
     .240000000000D+01  .000000000000D+00 -.107102096081D-07  .330000000000D+02
     .151206000000D+06  .400000000000D+01
29 10  8 23 20  0  0.0  .144075136632D-03  .272848410532D-11  .000000000000D+00
     .760000000000D+02 -.477812500000D+02  .431017953628D-08 -.916326366157D+00
    -.250339508057D-05  .277052388992D-02  .121928751469D-04  .515369619751D+04
     .158400000000D+06 -.596046447754D-07  .300879269835D+01 -.745058059692D-07
     .961306633731D+00  .141562500000D+03 -.125529980919D+01 -.792925885689D-08
     .321441960776D-10  .100000000000D+01  .159800000000D+04  .000000000000D+00
     .240000000000D+01  .000000000000D+00 -.884756445885D-08  .760000000000D+02
     .151206000000D+06  .400000000000D+01
30 10  8 23 20  0  0.0  .272016040981D-03  .341060513165D-11  .000000000000D+00
     .760000000000D+02 -.788125000000D+02  .495056335369D-08 -.256286838667D+01
    -.403262674809D-05  .125875793165D-01  .265054404736D-05  .515370134735D+04
     .158400000000D+06  .150874257088D-06  .188501690481D+01  .134110450745D-06
     .956932235109D+00  .322437500000D+03  .150712118039D+01 -.832677541505D-08
    -.120004998690D-09  .100000000000D+01  .159800000000D+04  .000000000000D+00
     .240000000000D+01  .000000000000D+00 -.791624188423D-08  .760000000000D+02
     .151206000000D+06  .400000000000D+01
32 10  8 23 20  0  0.0 -.683064572513D-04 -.886757334229D-11  .000000000000D+00
     .230000000000D+02 -.460000000000D+02  .489948979770D-08  .608860851876D+00
    -.271946191788D-05  .126532121794D-01  .620447099209D-05  .515364556885D+04
     .158400000000D+06  .596046447754D-07 -.112665725355D+01 -.216066837311D-06
     .957739881459D+00  .262000000000D+03 -.947474757921D+00 -.844249452093D-08
    -.558594696283D-09  .100000000000D+01  .159800000000D+04  .000000000000D+00
     .240000000000D+01  .000000000000D+00 -.325962901115D-08  .230000000000D+02
     .151206000000D+06  .400000000000D+01
15 10  8 23 19 59 44.0 -.219518784434D-03  .557065504836D-11  .000000000000D+00
     .000000000000D+00  .305000000000D+02  .431017953628D-08  .207160386227D+01
     .156275928020D-05  .262971641496D-02  .114105641842D-04  .515380569458D+04
     .158384000000D+06  .000000000000D+00 -.182940992570D+00  .186264514923D-08
     .953208650704D+00  .155281250000D+03 -.200357278073D+00 -.783604068826D-08
    -.197508227010D-09  .100000000000D+01  .159800000000D+04  .000000000000D+00
     .240000000000D+01  .000000000000D+00 -.977888703346D-08  .000000000000D+00
     .156066000000D+06  .400000000000D+01
22 10  8 23 19 59 44.0  .164626166224D-03 -.102318153949D-11  .000000000000D+00
     .000000000000D+00 -.433750000000D+02  .527843415368D-08 -.309991937231D+01
    -.222586095333D-05  .558263412677D-02  .560283660889D-05  .515371169662D+04
     .158384000000D+06  .298023223877D-07 -.118708664409D+01  .558793544769D-08
     .933545507358D+00  .256406250000D+03 -.193944888128D+01 -.835284792964D-08
    -.448590114150D-09  .100000000000D+01  .159800000000D+04  .000000000000D+00
     .240000000000D+01  .000000000000D+00 -.176951289177D-07  .000000000000D+00
     .156486000000D+06  .400000000000D+01
15 10  8 23 21 59 44.0 -.219478737563D-03  .557065504836D-11  .000000000000D+00
     .100000000000D+01  .245312500000D+02  .428696428356D-08  .312156751263D+01
     .130385160446D-05  .262894877233D-02  .113472342491D-04  .515380726814D+04
     .165584000000D+06  .130385160446D-07 -.182997374895D+00  .279396772385D-07
     .953207089770D+00  .157218750000D+03 -.200222701313D+00 -.785889878325D-08
    -.213223167315D-09  .100000000000D+01  .159800000000D+04  .000000000000D+00
     .240000000000D+01  .000000000000D+00 -.977888703346D-08  .100000000000D+01
     .158406000000D+06  .400000000000D+01
22 10  8 23 21 59 44.0  .164618715644D-03 -.102318153949D-11  .000000000000D+00
     .200000000000D+02 -.418437500000D+02  .534022244170D-08 -.204979477464D+01
    -.221282243729D-05  .558289571200D-02  .562705099583D-05  .515371106720D+04
     .165584000000D+06  .104308128357D-06 -.118714647744D+01 -.391155481339D-07
     .933542031464D+00  .258468750000D+03 -.193941022660D+01 -.837999191744D-08
    -.513592821774D-09  .100000000000D+01  .159800000000D+04  .000000000000D+00
     .240000000000D+01  .000000000000D+00 -.176951289177D-07  .200000000000D+02
     .158406000000D+06  .400000000000D+01
